FENGYUN 1C DEB          
1 38159U 99025ERG 17345.58632491 -.00000001  00000-0  30221-4 0  9993
2 38159  99.3294 109.3002 0054950  53.1630 307.4555 14.00334298421741
